{
    "links": {
        "self": "http://www.neowsapp.com/rest/v1/neo/54062093?api_key=iIulBulltgU6a56xZRHN4H3l9WmuAYTsLGpBGhQ2"
    },
    "id": "54062093",
    "neo_reference_id": "54062093",
    "name": "(2020 TB5)",
    "designation": "2020 TB5",
    "nasa_jpl_url": "http://ssd.jpl.nasa.gov/sbdb.cgi?sstr=54062093",
    "absolute_magnitude_h": 27.149,
    "estimated_diameter": {
        "kilometers": {
            "estimated_diameter_min": 0.0098799552,
            "estimated_diameter_max": 0.0220922515
        },
        "meters": {
            "estimated_diameter_min": 9.8799552294,
            "estimated_diameter_max": 22.0922515077
        },
        "miles": {
            "estimated_diameter_min": 0.0061391177,
            "estimated_diameter_max": 0.0137274844
        },
        "feet": {
            "estimated_diameter_min": 32.414552315,
            "estimated_diameter_max": 72.4811424365
        }
    },
    "is_potentially_hazardous_asteroid": false,
    "close_approach_data": [
        {
            "close_approach_date": "2018-06-23",
            "close_approach_date_full": "2018-Jun-23 01:32",
            "epoch_date_close_approach": 1529717520000,
            "relative_velocity": {
                "kilometers_per_second": "6.3357638445",
                "kilometers_per_hour": "22808.749840306",
                "miles_per_hour": "14172.4701438279"
            },
            "miss_distance": {
                "astronomical": "0.0703679833",
                "lunar": "27.3731455037",
                "kilometers": "10526900.417875571",
                "miles": "6541112.6042460398"
            },
            "orbiting_body": "Mars"
        },
        {
            "close_approach_date": "2020-10-08",
            "close_approach_date_full": "2020-Oct-08 12:48",
            "epoch_date_close_approach": 1602161280000,
            "relative_velocity": {
                "kilometers_per_second": "4.7473258139",
                "kilometers_per_hour": "17090.3729300025",
                "miles_per_hour": "10619.2931130896"
            },
            "miss_distance": {
                "astronomical": "0.0389772217",
                "lunar": "15.1621392413",
                "kilometers": "5830909.344837779",
                "miles": "3623159.0587641902"
            },
            "orbiting_body": "Earth"
        },
        {
            "close_approach_date": "2145-08-14",
            "close_approach_date_full": "2145-Aug-14 08:19",
            "epoch_date_close_approach": 5541985140000,
            "relative_velocity": {
                "kilometers_per_second": "18.7352976646",
                "kilometers_per_hour": "67447.0715926817",
                "miles_per_hour": "41908.9873460193"
            },
            "miss_distance": {
                "astronomical": "0.490093136",
                "lunar": "190.646229904",
                "kilometers": "73316889.24722032",
                "miles": "45557002.471947616"
            },
            "orbiting_body": "Earth"
        },
        {
            "close_approach_date": "2147-08-20",
            "close_approach_date_full": "2147-Aug-20 05:10",
            "epoch_date_close_approach": 5605564200000,
            "relative_velocity": {
                "kilometers_per_second": "16.015761196",
                "kilometers_per_hour": "57656.7403055752",
                "miles_per_hour": "35825.656219317"
            },
            "miss_distance": {
                "astronomical": "0.3957661322",
                "lunar": "153.9530254258",
                "kilometers": "59205770.395258414",
                "miles": "36788759.8061535532"
            },
            "orbiting_body": "Earth"
        }
    ],
    "orbital_data": {
        "orbit_id": "2",
        "orbit_determination_date": "2020-10-17 08:36:24",
        "first_observation_date": "2020-10-13",
        "last_observation_date": "2020-10-17",
        "data_arc_in_days": 4,
        "observations_used": 25,
        "orbit_uncertainty": "8",
        "minimum_orbit_intersection": ".035481",
        "jupiter_tisserand_invariant": "4.310",
        "epoch_osculation": "2459136.5",
        "eccentricity": ".3486285258958839",
        "semi_major_axis": "1.587940866194251",
        "inclination": "3.801184751607429",
        "ascending_node_longitude": "5.301271364461348",
        "orbital_period": "730.8864579242015",
        "perihelion_distance": "1.034339382803116",
        "perihelion_argument": "10.36120632371533",
        "aphelion_distance": "2.141542349585385",
        "perihelion_time": "2459131.870570274701",
        "mean_anomaly": "2.280237488379458",
        "mean_motion": ".4925525655824023",
        "equinox": "J2000",
        "orbit_class": {
            "orbit_class_type": "AMO",
            "orbit_class_description": "Near-Earth asteroid orbits similar to that of 1221 Amor",
            "orbit_class_range": "1.017 AU < q (perihelion) < 1.3 AU"
        }
    },
    "is_sentry_object": false
}